[
    {
        "Altitude(m)": 611967.1624407808,
        "Argument of Periapsis(deg)": 0.0,
        "Eccentricity": 0.0,
        "Inclination(deg)": 60.0,
        "Latitude(deg)": 59.14011158665359,
        "Longitude(deg)": -18.908089976224986,
        "Mean Anomaly(deg)": -261.8182,
        "RAAN(deg)": 335.0,
        "Satellite Name": "Test1 1480",
        "Satellite Number": 1480,
        "Semi-Major Axis(m)": 6980739.136638005,
        "Time(s)": 0
    },
    {
        "Altitude(m)": 611934.3628337041,
        "Argument of Periapsis(deg)": 0.00010418945913296404,
        "Eccentricity": 0.0,
        "Inclination(deg)": 60.0,
        "Latitude(deg)": 58.98647551466581,
        "Longitude(deg)": -17.784844945897856,
        "Mean Anomaly(deg)": -261.1980938545382,
        "RAAN(deg)": 334.99957995086027,
        "Satellite Name": "Test1 1480",
        "Satellite Number": 1480,
        "Semi-Major Axis(m)": 6980739.136638005,
        "Time(s)": 10
    }
]